STARLINK-1783           
1 46686U 20073S   21208.46603581  .00000560  00000-0  56478-4 0  9993
2 46686  53.0544 266.3692 0000875 103.0175 257.0911 15.06399923 42765
STARLINK-1784           
1 46687U 20073T   21208.78443395  .00000461  00000-0  49813-4 0  9999
2 46687  53.0539 229.9295 0000616  82.4153 277.6906 15.06390486 43301
STARLINK-1786           
1 46688U 20073U   21208.56188561 -.00000895  00000-0 -41199-4 0  9999
2 46688  53.0549 265.9496 0000736 130.0231 230.0822 15.06389313 42784
STARLINK-1788           
1 46689U 20073V   21208.54346863  .00000652  00000-0  62636-4 0  9997
2 46689  53.0550 266.0251 0000520  96.1115 263.9934 15.06383379 44026
STARLINK-1789           
1 46690U 20073W   21208.80931345 -.00001220  00000-0 -63105-4 0  9999
2 46690  53.0537 239.8184 0000232  77.1960 282.9055 15.06387374 43161
STARLINK-1790           
1 46691U 20073X   21208.80839355  .00001382  00000-0  11167-3 0  9995
2 46691  53.0550 249.8316 0000449  91.2123 268.8917 15.06391439 43025
STARLINK-1791           
1 46692U 20073Y   21208.52871576 -.00000871  00000-0 -39654-4 0  9992
2 46692  53.0534 266.1010 0000597 101.1581 258.9475 15.06388857 42774
STARLINK-1792           
1 46693U 20073Z   21208.81207849  .00000550  00000-0  55797-4 0  9999
2 46693  53.0541 249.8138 0000600 104.2395 255.8661 15.06387257 43029
STARLINK-1793           
1 46694U 20073AA  21208.76967252 -.00001350  00000-0 -71591-4 0  9996
2 46694  53.0559 230.0033 0006448 302.2090  57.8273 15.06390793 43302
STARLINK-1794           
1 46695U 20073AB  21208.44083299  .00017973  00000-0  14202-3 0  9993
2 46695  53.0548 241.0288 0002945  22.3546 337.7599 15.71489226 43605
STARLINK-1795           
1 46696U 20073AC  21208.78812715  .00000346  00000-0  42086-4 0  9992
2 46696  53.0540 229.9118 0000662  72.8883 287.2178 15.06396254 43308
STARLINK-1796           
1 46697U 20073AD  21208.61852634  .00180541  00000-0  10158-2 0  9998
2 46697  53.0552 233.5679 0008073 272.1063  87.9032 15.78145929 43241
STARLINK-1797           
1 46698U 20073AE  21208.44718043  .00000438  00000-0  48270-4 0  9999
2 46698  53.0553 251.4570 0000521 101.8462 258.2586 15.06381443 42973
STARLINK-1799           
1 46699U 20073AF  21208.51718550  .00000960  00000-0  83319-4 0  9994
2 46699  53.0549 251.1356 0000266 128.8930 231.2083 15.06400232 43425
STARLINK-1800           
1 46700U 20073AG  21208.52134198 -.00001013  00000-0 -49159-4 0  9994
2 46700  53.0550 266.1342 0000612 122.1865 237.9184 15.06392721 42775
STARLINK-1801           
1 46701U 20073AH  21208.81943172  .00000562  00000-0  56594-4 0  9994
2 46701  53.0528 249.7921 0000552 102.3960 257.7091 15.06399250 43031
STARLINK-1802           
1 46702U 20073AJ  21208.76599604  .00000251  00000-0  35776-4 0  9990
2 46702  53.0556 230.0186 0003259 302.6855  57.3820 15.06389499 43302
STARLINK-1803           
1 46703U 20073AK  21208.53193735 -.00001354  00000-0 -72086-4 0  9993
2 46703  53.0553 251.0798 0000514 113.0246 247.0797 15.06388277 42988
STARLINK-1804           
1 46704U 20073AL  21208.77704110  .00000617  00000-0  60382-4 0  9990
2 46704  53.0531 229.9658 0004617 303.8651  56.1898 15.06401835 43305
STARLINK-1805           
1 46705U 20073AM  21208.59137081  .00000715  00000-0  66844-4 0  9996
2 46705  53.0540 265.8095 0000668 120.8898 239.2157 15.06396100 42783
STARLINK-1807           
1 46706U 20073AN  21208.83050485 -.00000979  00000-0 -46912-4 0  9994
2 46706  53.0529 249.7410 0000400 105.0217 255.0816 15.06388148 43037
STARLINK-1808           
1 46707U 20073AP  21208.75493875  .00000589  00000-0  58569-4 0  9996
2 46707  53.0570 230.0761 0005657 304.2352  55.8100 15.06388826 43303
STARLINK-1809           
1 46708U 20073AQ  21208.75860803  .00000619  00000-0  60553-4 0  9996
2 46708  53.0539 230.0466 0004944 301.8787  58.1720 15.06400995 43300
STARLINK-1810           
1 46709U 20073AR  21208.55356043  .00000805  00000-0  72889-4 0  9993
2 46709  53.0538 265.9671 0000452 126.4018 233.7013 15.06401267 42772
STARLINK-1811           
1 46710U 20073AS  21208.58399428  .00000679  00000-0  64475-4 0  9993
2 46710  53.0552 265.8486 0000559 133.4746 226.6289 15.06397578 42783
STARLINK-1813           
1 46711U 20073AT  21208.82313133  .00001588  00000-0  12549-3 0  9994
2 46711  53.0538 249.7791 0000506  90.0843 270.0204 15.06396037 43034
STARLINK-1814           
1 46712U 20073AU  21208.52364290  .00000488  00000-0  51617-4 0  9990
2 46712  53.0545 251.1215 0000430 111.1626 248.9409 15.06392146 42982
STARLINK-1815           
1 46713U 20073AV  21208.53562085 -.00000936  00000-0 -43990-4 0  9999
2 46713  53.0565 251.0576 0000471  85.9948 274.1095 15.06392013 42989
STARLINK-1816           
1 46714U 20073AW  21208.52456959  .00001740  00000-0  13568-3 0  9990
2 46714  53.0547 251.1012 0000578 104.3835 255.7218 15.06397704 42989
STARLINK-1817           
1 46715U 20073AX  21208.52087577  .00000565  00000-0  56835-4 0  9996
2 46715  53.0538 251.1313 0000524 106.8495 253.2551 15.06396099 42983
STARLINK-1818           
1 46716U 20073AY  21208.60243776  .00000964  00000-0  83616-4 0  9991
2 46716  53.0549 265.7692 0000453 120.2343 239.8691 15.06391891 42788
STARLINK-1820           
1 46717U 20073AZ  21208.80469440 -.00000247  00000-0  22838-5 0  9997
2 46717  53.0539 249.8437 0000454 129.7929 230.3100 15.06389968 43024
STARLINK-1821           
1 46718U 20073BA  21208.44762079 -.00000964  00000-0 -45841-4 0  9997
2 46718  53.0548 266.4612 0000616 125.7829 234.3218 15.06396127 42769
STARLINK-1822           
1 46719U 20073BB  21208.76229325  .00000242  00000-0  35229-4 0  9991
2 46719  53.0546 230.0289 0004502 299.3711  60.6828 15.06401991 43305
STARLINK-1823           
1 46720U 20073BC  21208.79179173  .00000981  00000-0  84739-4 0  9991
2 46720  53.0544 229.8994 0001061  68.3613 291.7489 15.06401488 43307
STARLINK-1824           
1 46721U 20073BD  21208.90034448 -.00008818  11465-4 -68194-5 0  9998
2 46721  53.0120 116.6076 0002672 194.2628 165.8329 16.06179900 44875
STARLINK-1825           
1 46722U 20073BE  21208.53981570 -.00004306  00000-0 -27066-3 0  9993
2 46722  53.0547 266.0320 0000967 114.0083 246.1008 15.06359303 42771
STARLINK-1826           
1 46723U 20073BF  21208.76461864  .00000488  00000-0  51607-4 0  9992
2 46723  53.0548 225.0226 0000264  36.4864 323.6143 15.06395722 43370
STARLINK-1827           
1 46724U 20073BG  21208.53342288  .00257792  00000-0  74297-2 0  9996
2 46724  53.0479 229.1455 0007283 276.4470  83.5701 15.34182484 43776
STARLINK-1828           
1 46725U 20073BH  21208.56925931  .00000694  00000-0  65499-4 0  9995
2 46725  53.0541 265.9030 0000692 122.8858 237.2197 15.06390833 42780
STARLINK-1829           
1 46726U 20073BJ  21208.52825205  .00000595  00000-0  59031-4 0  9990
2 46726  53.0527 251.0849 0008881  22.7874 337.3508 15.06398907 42983
STARLINK-1830           
1 46727U 20073BK  21208.74985763  .00000434  00000-0  47991-4 0  9995
2 46727  53.0529 225.1048 0000211  19.1861 340.9136 15.06404394 43373
STARLINK-1831           
1 46728U 20073BL  21208.80561333 -.00006476  00000-0 -41603-3 0  9993
2 46728  53.0529 239.8360 0000490  65.1040 294.9999 15.06420624 43168
FLOCK 4V-22             
1 46735U 20061BL  21208.92137650  .00002967  00000-0  15611-3 0  9991
2 46735  97.4263 281.4394 0006422 159.1683 200.9796 15.16390605 42506
FLOCK 4V-23             
1 46737U 20061BM  21208.74755507  .00001150  00000-0  62589-4 0  9990
2 46737  97.4316 281.5676 0005594 144.7787 215.3816 15.16403575 42419
FLOCK 4V-24             
1 46738U 20061BN  21208.92126862  .00003288  00000-0  17348-3 0  9993
2 46738  97.4427 281.8860 0006710 180.0141 180.1080 15.16224416 42012
STARLINK-1848           
1 46740U 20074B   21208.64295280 -.00000654  00000-0 -25027-4 0  9990
2 46740  53.0551 335.5620 0001306 121.7685 238.3432 15.06389698 42473
STARLINK-1865           
1 46741U 20074C   21208.72728755  .00000980  00000-0  84656-4 0  9991
2 46741  53.0550 330.2098 0001143 110.4093 249.7019 15.06392854 42566
STARLINK-1872           
1 46742U 20074D   21208.63145151 -.00000462  00000-0 -12118-4 0  9996
2 46742  53.0559 330.6168 0001196 121.1552 238.9554 15.06397601 42542
STARLINK-1892           
1 46743U 20074E   21208.65360146  .00000961  00000-0  83542-4 0  9993
2 46743  53.0548 330.5385 0008136 114.0647 246.1194 15.06393228 42551
STARLINK-1894           
1 46744U 20074F   21208.67200061  .00000177  00000-0  30754-4 0  9991
2 46744  53.0542 330.4589 0001224 116.4984 243.6131 15.06394227 42555
STARLINK-1898           
1 46745U 20074G   21208.76046911  .00001877  00000-0  14482-3 0  9991
2 46745  53.0560 330.0363 0000947 135.5539 224.5526 15.06405602 42568
STARLINK-1905           
1 46746U 20074H   21208.75308957 -.00000974  00000-0 -46520-4 0  9990
2 46746  53.0565 330.0723 0001374 128.1903 231.9210 15.06392891 42569
STARLINK-1908           
1 46747U 20074J   21208.60197099 -.00000859  00000-0 -38830-4 0  9995
2 46747  53.0549 330.7616 0001240 121.3938 238.7172 15.06387017 42549
STARLINK-1910           
1 46748U 20074K   21208.74204603  .00001247  00000-0  10272-3 0  9990
2 46748  53.0556 330.1349 0004805 109.9173 250.2334 15.06393836 42565
STARLINK-1911           
1 46749U 20074L   21208.61671485 -.00001314  00000-0 -69395-4 0  9991
2 46749  53.0561 330.6903 0001343  99.7682 260.3458 15.06381895 42547
STARLINK-1920           
1 46751U 20074N   21208.61304118  .00001290  00000-0  10549-3 0  9997
2 46751  53.0553 330.7218 0001277 125.7756 234.3351 15.06388978 42541
STARLINK-1921           
1 46752U 20074P   21208.62409371  .00001579  00000-0  12499-3 0  9992
2 46752  53.0565 330.6684 0004773  97.4214 262.7317 15.06395846 42548
STARLINK-1922           
1 46753U 20074Q   21208.72361560  .00001390  00000-0  11221-3 0  9994
2 46753  53.0552 330.2147 0001228 120.5531 239.5580 15.06391419 42565
